[{"OBJECT_NAME":"ARCTURUS","OBJECT_ID":"2023-060B","EPOCH":"2026-03-06T15:30:08.767584","MEAN_MOTION":1.00272994,"ECCENTRICITY":7.023e-5,"INCLINATION":2.5103,"RA_OF_ASC_NODE":81.2455,"ARG_OF_PERICENTER":345.2013,"MEAN_ANOMALY":42.9382,"EPHEMERIS_TYPE":0,"CLASSIFICATION_TYPE":"U","NORAD_CAT_ID":56371,"ELEMENT_SET_NO":999,"REV_AT_EPOCH":1043,"BSTAR":0,"MEAN_MOTION_DOT":-6.6e-7,"MEAN_MOTION_DDOT":0},{"OBJECT_NAME":"GS-1","OBJECT_ID":"2023-060C","EPOCH":"2026-03-06T12:05:48.751872","MEAN_MOTION":1.00299102,"ECCENTRICITY":0.00047612,"INCLINATION":2.4607,"RA_OF_ASC_NODE":81.0544,"ARG_OF_PERICENTER":262.892,"MEAN_ANOMALY":85.1835,"EPHEMERIS_TYPE":0,"CLASSIFICATION_TYPE":"U","NORAD_CAT_ID":56372,"ELEMENT_SET_NO":999,"REV_AT_EPOCH":650,"BSTAR":0,"MEAN_MOTION_DOT":-1.79e-6,"MEAN_MOTION_DDOT":0},{"OBJECT_NAME":"BEIDOU-3 G4","OBJECT_ID":"2023-066A","EPOCH":"2026-03-06T19:51:15.568128","MEAN_MOTION":1.0027244,"ECCENTRICITY":0.0002266,"INCLINATION":0.6443,"RA_OF_ASC_NODE":311.2389,"ARG_OF_PERICENTER":156.3494,"MEAN_ANOMALY":154.8091,"EPHEMERIS_TYPE":0,"CLASSIFICATION_TYPE":"U","NORAD_CAT_ID":56564,"ELEMENT_SET_NO":999,"REV_AT_EPOCH":1036,"BSTAR":0,"MEAN_MOTION_DOT":-1.15e-6,"MEAN_MOTION_DDOT":0},{"OBJECT_NAME":"ARABSAT-7B (BADR-8)","OBJECT_ID":"2023-075A","EPOCH":"2026-03-04T08:46:14.649312","MEAN_MOTION":1.00273524,"ECCENTRICITY":0.00054521,"INCLINATION":0.0794,"RA_OF_ASC_NODE":28.0608,"ARG_OF_PERICENTER":324.4726,"MEAN_ANOMALY":327.1364,"EPHEMERIS_TYPE":0,"CLASSIFICATION_TYPE":"U","NORAD_CAT_ID":56757,"ELEMENT_SET_NO":999,"REV_AT_EPOCH":1006,"BSTAR":0,"MEAN_MOTION_DOT":1.33e-6,"MEAN_MOTION_DDOT":0},{"OBJECT_NAME":"NVS-01 (IRNSS-1J)","OBJECT_ID":"2023-076A","EPOCH":"2026-03-06T18:55:38.813952","MEAN_MOTION":1.00273048,"ECCENTRICITY":0.0007203,"INCLINATION":2.413,"RA_OF_ASC_NODE":248.5405,"ARG_OF_PERICENTER":46.0615,"MEAN_ANOMALY":283.3391,"EPHEMERIS_TYPE":0,"CLASSIFICATION_TYPE":"U","NORAD_CAT_ID":56759,"ELEMENT_SET_NO":999,"REV_AT_EPOCH":1008,"BSTAR":0,"MEAN_MOTION_DOT":-3.41e-6,"MEAN_MOTION_DDOT":0},{"OBJECT_NAME":"NUSANTARA TIGA (SATRIA)","OBJECT_ID":"2023-086A","EPOCH":"2026-03-06T19:47:08.463264","MEAN_MOTION":1.00268169,"ECCENTRICITY":0.0005914,"INCLINATION":0.0223,"RA_OF_ASC_NODE":283.648,"ARG_OF_PERICENTER":41.7333,"MEAN_ANOMALY":281.9579,"EPHEMERIS_TYPE":0,"CLASSIFICATION_TYPE":"U","NORAD_CAT_ID":57045,"ELEMENT_SET_NO":999,"REV_AT_EPOCH":873,"BSTAR":0,"MEAN_MOTION_DOT":0,"MEAN_MOTION_DDOT":0},{"OBJECT_NAME":"FALCON 9 R/B","OBJECT_ID":"2023-086B","EPOCH":"2026-03-06T11:56:21.410592","MEAN_MOTION":1.46546708,"ECCENTRICITY":0.77972802,"INCLINATION":26.8196,"RA_OF_ASC_NODE":231.3786,"ARG_OF_PERICENTER":146.6331,"MEAN_ANOMALY":304.8924,"EPHEMERIS_TYPE":0,"CLASSIFICATION_TYPE":"U","NORAD_CAT_ID":57046,"ELEMENT_SET_NO":999,"REV_AT_EPOCH":1413,"BSTAR":0.0079303018,"MEAN_MOTION_DOT":-1.72e-6,"MEAN_MOTION_DDOT":0},{"OBJECT_NAME":"H2SAT (HEINRICH HERTZ)","OBJECT_ID":"2023-093A","EPOCH":"2026-03-06T19:05:42.434592","MEAN_MOTION":1.00271611,"ECCENTRICITY":0.0001469,"INCLINATION":0.0456,"RA_OF_ASC_NODE":301.6759,"ARG_OF_PERICENTER":164.0836,"MEAN_ANOMALY":345.8572,"EPHEMERIS_TYPE":0,"CLASSIFICATION_TYPE":"U","NORAD_CAT_ID":57213,"ELEMENT_SET_NO":999,"REV_AT_EPOCH":988,"BSTAR":0,"MEAN_MOTION_DOT":-2.0e-8,"MEAN_MOTION_DDOT":0},{"OBJECT_NAME":"SYRACUSE 4B","OBJECT_ID":"2023-093B","EPOCH":"2026-03-06T10:24:38.712096","MEAN_MOTION":1.00271375,"ECCENTRICITY":3.361e-5,"INCLINATION":0.0198,"RA_OF_ASC_NODE":134.7089,"ARG_OF_PERICENTER":276.798,"MEAN_ANOMALY":262.3175,"EPHEMERIS_TYPE":0,"CLASSIFICATION_TYPE":"U","NORAD_CAT_ID":57214,"ELEMENT_SET_NO":999,"REV_AT_EPOCH":593,"BSTAR":0,"MEAN_MOTION_DOT":-5.8e-7,"MEAN_MOTION_DDOT":0},{"OBJECT_NAME":"JUPITER 3 (ECHOSTAR 24)","OBJECT_ID":"2023-108A","EPOCH":"2026-03-04T19:30:25.101792","MEAN_MOTION":1.00271616,"ECCENTRICITY":0.00011128,"INCLINATION":0.0135,"RA_OF_ASC_NODE":129.5247,"ARG_OF_PERICENTER":209.944,"MEAN_ANOMALY":20.4954,"EPHEMERIS_TYPE":0,"CLASSIFICATION_TYPE":"U","NORAD_CAT_ID":57479,"ELEMENT_SET_NO":999,"REV_AT_EPOCH":960,"BSTAR":0,"MEAN_MOTION_DOT":-1.6e-6,"MEAN_MOTION_DDOT":0},{"OBJECT_NAME":"FALCON HEAVY R/B","OBJECT_ID":"2023-108B","EPOCH":"2026-03-06T13:29:47.178240","MEAN_MOTION":1.84352707,"ECCENTRICITY":0.49525,"INCLINATION":11.1057,"RA_OF_ASC_NODE":103.4068,"ARG_OF_PERICENTER":12.1567,"MEAN_ANOMALY":356.5676,"EPHEMERIS_TYPE":0,"CLASSIFICATION_TYPE":"U","NORAD_CAT_ID":57480,"ELEMENT_SET_NO":999,"REV_AT_EPOCH":1755,"BSTAR":0,"MEAN_MOTION_DOT":-1.07e-6,"MEAN_MOTION_DDOT":0},{"OBJECT_NAME":"GALAXY 37 (G-37)","OBJECT_ID":"2023-112A","EPOCH":"2026-03-06T13:21:15.463008","MEAN_MOTION":1.00272035,"ECCENTRICITY":0.00020385,"INCLINATION":0.0136,"RA_OF_ASC_NODE":112.6439,"ARG_OF_PERICENTER":238.0643,"MEAN_ANOMALY":246.8634,"EPHEMERIS_TYPE":0,"CLASSIFICATION_TYPE":"U","NORAD_CAT_ID":57493,"ELEMENT_SET_NO":999,"REV_AT_EPOCH":951,"BSTAR":0,"MEAN_MOTION_DOT":4.4e-7,"MEAN_MOTION_DDOT":0},{"OBJECT_NAME":"ATLAS 5 CENTAUR DEB","OBJECT_ID":"2018-079HR","EPOCH":"2026-02-26T05:20:58.471008","MEAN_MOTION":1.56216679,"ECCENTRICITY":0.49442951,"INCLINATION":11.7561,"RA_OF_ASC_NODE":96.4039,"ARG_OF_PERICENTER":185.5928,"MEAN_ANOMALY":165.7012,"EPHEMERIS_TYPE":0,"CLASSIFICATION_TYPE":"U","NORAD_CAT_ID":57590,"ELEMENT_SET_NO":999,"REV_AT_EPOCH":2472,"BSTAR":0,"MEAN_MOTION_DOT":-7.9e-7,"MEAN_MOTION_DDOT":0},{"OBJECT_NAME":"ATLAS 5 CENTAUR DEB","OBJECT_ID":"2018-079HW","EPOCH":"2026-02-26T06:38:06.149184","MEAN_MOTION":1.69242768,"ECCENTRICITY":0.46863049,"INCLINATION":12.5292,"RA_OF_ASC_NODE":80.5223,"ARG_OF_PERICENTER":224.1991,"MEAN_ANOMALY":87.1117,"EPHEMERIS_TYPE":0,"CLASSIFICATION_TYPE":"U","NORAD_CAT_ID":57595,"ELEMENT_SET_NO":999,"REV_AT_EPOCH":2639,"BSTAR":0,"MEAN_MOTION_DOT":-1.31e-6,"MEAN_MOTION_DDOT":0},{"OBJECT_NAME":"LUDI TANCE-4 01A","OBJECT_ID":"2023-120A","EPOCH":"2026-03-06T19:31:09.994368","MEAN_MOTION":1.00268733,"ECCENTRICITY":0.0005067,"INCLINATION":15.1734,"RA_OF_ASC_NODE":196.5024,"ARG_OF_PERICENTER":107.5024,"MEAN_ANOMALY":242.9324,"EPHEMERIS_TYPE":0,"CLASSIFICATION_TYPE":"U","NORAD_CAT_ID":57624,"ELEMENT_SET_NO":999,"REV_AT_EPOCH":951,"BSTAR":0,"MEAN_MOTION_DOT":-1.91e-6,"MEAN_MOTION_DDOT":0},{"OBJECT_NAME":"TJS-10","OBJECT_ID":"2023-169A","EPOCH":"2026-03-06T17:41:46.562208","MEAN_MOTION":0.99764814,"ECCENTRICITY":0.0010983,"INCLINATION":2.28,"RA_OF_ASC_NODE":81.7414,"ARG_OF_PERICENTER":234.7724,"MEAN_ANOMALY":230.4499,"EPHEMERIS_TYPE":0,"CLASSIFICATION_TYPE":"U","NORAD_CAT_ID":58204,"ELEMENT_SET_NO":999,"REV_AT_EPOCH":851,"BSTAR":0,"MEAN_MOTION_DOT":-3.2e-6,"MEAN_MOTION_DDOT":0},{"OBJECT_NAME":"ZHONGXING-6E","OBJECT_ID":"2023-172A","EPOCH":"2026-03-06T15:24:38.786112","MEAN_MOTION":1.00267455,"ECCENTRICITY":0.00026556,"INCLINATION":0.0529,"RA_OF_ASC_NODE":267.5543,"ARG_OF_PERICENTER":92.4842,"MEAN_ANOMALY":150.943,"EPHEMERIS_TYPE":0,"CLASSIFICATION_TYPE":"U","NORAD_CAT_ID":58253,"ELEMENT_SET_NO":999,"REV_AT_EPOCH":863,"BSTAR":0,"MEAN_MOTION_DOT":-3.65e-6,"MEAN_MOTION_DDOT":0}]
